{
  "type": "FeatureCollection",
  "features": [
    {
      "type": "Feature",
      "properties": {
        "norad_id": 33663,
        "name": "FENGYUN 1C DEB",
        "group": "fengyun-1c-debris",
        "lat": 45.289932004464866,
        "lon": -24.027085871196167,
        "alt_km": 646.3195547266632,
        "timestamp": "2025-12-19T08:58:49.624833+00:00",
        "meta_object_name": "FENGYUN 1C DEB",
        "meta_object_id": "1999-025DEY",
        "meta_epoch": "2025-12-14T05:36:34.659936",
        "meta_mean_motion": 14.62128148,
        "meta_eccentricity": 0.0081413,
        "meta_inclination": 98.8858,
        "meta_ra_of_asc_node": 339.5398,
        "meta_arg_of_pericenter": 9.0436,
        "meta_mean_anomaly": 351.2208,
        "meta_ephemeris_type": 0,
        "meta_classification_type": "U",
        "meta_norad_cat_id": 33663,
        "meta_element_set_no": 999,
        "meta_rev_at_epoch": 64224,
        "meta_bstar": 0.0064692056,
        "meta_mean_motion_dot": 0.00034209,
        "meta_mean_motion_ddot": 0,
        "tle_line1": "1 33663U 99025DEY 25348.23373449  .00034209  00000+0  64692-2 0  9999",
        "tle_line2": "2 33663  98.8858 339.5398 0081413   9.0436 351.2208 14.62128148642244"
      },
      "geometry": {
        "type": "Point",
        "coordinates": [
          -24.027085871196167,
          45.289932004464866
        ]
      }
    },
    {
      "type": "Feature",
      "properties": {
        "norad_id": 33664,
        "name": "FENGYUN 1C DEB",
        "group": "fengyun-1c-debris",
        "lat": -20.846539780926978,
        "lon": 145.18258137742666,
        "alt_km": 796.3637825966189,
        "timestamp": "2025-12-19T08:58:49.624843+00:00",
        "meta_object_name": "FENGYUN 1C DEB",
        "meta_object_id": "1999-025DEZ",
        "meta_epoch": "2025-12-17T09:11:19.801248",
        "meta_mean_motion": 14.03997505,
        "meta_eccentricity": 0.01641224,
        "meta_inclination": 98.6999,
        "meta_ra_of_asc_node": 139.9327,
        "meta_arg_of_pericenter": 27.0521,
        "meta_mean_anomaly": 333.9084,
        "meta_ephemeris_type": 0,
        "meta_classification_type": "U",
        "meta_norad_cat_id": 33664,
        "meta_element_set_no": 999,
        "meta_rev_at_epoch": 90804,
        "meta_bstar": 0.00016492349,
        "meta_mean_motion_dot": 2.52e-06,
        "meta_mean_motion_ddot": 0,
        "tle_line1": "1 33664U 99025DEZ 25351.38286807  .00000252  00000+0  16492-3 0  9998",
        "tle_line2": "2 33664  98.6999 139.9327 0164122  27.0521 333.9084 14.03997505908045"
      },
      "geometry": {
        "type": "Point",
        "coordinates": [
          145.18258137742666,
          -20.846539780926978
        ]
      }
    },
    {
      "type": "Feature",
      "properties": {
        "norad_id": 33665,
        "name": "FENGYUN 1C DEB",
        "group": "fengyun-1c-debris",
        "lat": 80.10328409613454,
        "lon": 45.27862628483945,
        "alt_km": 549.7467355713479,
        "timestamp": "2025-12-19T08:58:49.624853+00:00",
        "meta_object_name": "FENGYUN 1C DEB",
        "meta_object_id": "1999-025DFA",
        "meta_epoch": "2025-12-18T13:46:59.892384",
        "meta_mean_motion": 14.03665713,
        "meta_eccentricity": 0.04555822,
        "meta_inclination": 99.0215,
        "meta_ra_of_asc_node": 110.0686,
        "meta_arg_of_pericenter": 75.9481,
        "meta_mean_anomaly": 289.1879,
        "meta_ephemeris_type": 0,
        "meta_classification_type": "U",
        "meta_norad_cat_id": 33665,
        "meta_element_set_no": 999,
        "meta_rev_at_epoch": 92673,
        "meta_bstar": 0.0003908797,
        "meta_mean_motion_dot": 1.51e-05,
        "meta_mean_motion_ddot": 0,
        "tle_line1": "1 33665U 99025DFA 25352.57430431  .00001510  00000+0  39088-3 0  9999",
        "tle_line2": "2 33665  99.0215 110.0686 0455582  75.9481 289.1879 14.03665713926733"
      },
      "geometry": {
        "type": "Point",
        "coordinates": [
          45.27862628483945,
          80.10328409613454
        ]
      }
    },
    {
      "type": "Feature",
      "properties": {
        "norad_id": 33673,
        "name": "FENGYUN 1C DEB",
        "group": "fengyun-1c-debris",
        "lat": -25.29410829690411,
        "lon": -144.18975108917718,
        "alt_km": 836.1561841089597,
        "timestamp": "2025-12-19T08:58:49.624863+00:00",
        "meta_object_name": "FENGYUN 1C DEB",
        "meta_object_id": "1999-025DFJ",
        "meta_epoch": "2025-12-14T22:10:11.155872",
        "meta_mean_motion": 13.95539618,
        "meta_eccentricity": 0.01078755,
        "meta_inclination": 99.3438,
        "meta_ra_of_asc_node": 35.7625,
        "meta_arg_of_pericenter": 218.3859,
        "meta_mean_anomaly": 320.4406,
        "meta_ephemeris_type": 0,
        "meta_classification_type": "U",
        "meta_norad_cat_id": 33673,
        "meta_element_set_no": 999,
        "meta_rev_at_epoch": 89932,
        "meta_bstar": 0.00032222239,
        "meta_mean_motion_dot": 4.13e-06,
        "meta_mean_motion_ddot": 0,
        "tle_line1": "1 33673U 99025DFJ 25348.92374023  .00000413  00000+0  32222-3 0  9990",
        "tle_line2": "2 33673  99.3438  35.7625 0107875 218.3859 320.4406 13.95539618899322"
      },
      "geometry": {
        "type": "Point",
        "coordinates": [
          -144.18975108917718,
          -25.29410829690411
        ]
      }
    },
    {
      "type": "Feature",
      "properties": {
        "norad_id": 33674,
        "name": "FENGYUN 1C DEB",
        "group": "fengyun-1c-debris",
        "lat": 0.6190245554045591,
        "lon": 42.597055331511534,
        "alt_km": 1092.3748313648148,
        "timestamp": "2025-12-19T08:58:49.624884+00:00",
        "meta_object_name": "FENGYUN 1C DEB",
        "meta_object_id": "1999-025DFK",
        "meta_epoch": "2025-12-18T13:47:35.828736",
        "meta_mean_motion": 13.76913181,
        "meta_eccentricity": 0.02118358,
        "meta_inclination": 98.6051,
        "meta_ra_of_asc_node": 41.9667,
        "meta_arg_of_pericenter": 224.6341,
        "meta_mean_anomaly": 133.7588,
        "meta_ephemeris_type": 0,
        "meta_classification_type": "U",
        "meta_norad_cat_id": 33674,
        "meta_element_set_no": 999,
        "meta_rev_at_epoch": 88445,
        "meta_bstar": 0.0015930456,
        "meta_mean_motion_dot": 1.813e-05,
        "meta_mean_motion_ddot": 0,
        "tle_line1": "1 33674U 99025DFK 25352.57472024  .00001813  00000+0  15930-2 0  9998",
        "tle_line2": "2 33674  98.6051  41.9667 0211835 224.6341 133.7588 13.76913181884453"
      },
      "geometry": {
        "type": "Point",
        "coordinates": [
          42.597055331511534,
          0.6190245554045591
        ]
      }
    },
    {
      "type": "Feature",
      "properties": {
        "norad_id": 33676,
        "name": "FENGYUN 1C DEB",
        "group": "fengyun-1c-debris",
        "lat": -72.10640146031038,
        "lon": 47.97532240187251,
        "alt_km": 862.0123643258758,
        "timestamp": "2025-12-19T08:58:49.624896+00:00",
        "meta_object_name": "FENGYUN 1C DEB",
        "meta_object_id": "1999-025DFM",
        "meta_epoch": "2025-12-18T08:14:07.391904",
        "meta_mean_motion": 14.35567561,
        "meta_eccentricity": 0.02049105,
        "meta_inclination": 99.0955,
        "meta_ra_of_asc_node": 17.1411,
        "meta_arg_of_pericenter": 53.3055,
        "meta_mean_anomaly": 308.6765,
        "meta_ephemeris_type": 0,
        "meta_classification_type": "U",
        "meta_norad_cat_id": 33676,
        "meta_element_set_no": 999,
        "meta_rev_at_epoch": 65391,
        "meta_bstar": 0.00011173858,
        "meta_mean_motion_dot": 3.53e-06,
        "meta_mean_motion_ddot": 0,
        "tle_line1": "1 33676U 99025DFM 25352.34314111  .00000353  00000+0  11174-3 0  9992",
        "tle_line2": "2 33676  99.0955  17.1411 0204910  53.3055 308.6765 14.35567561653918"
      },
      "geometry": {
        "type": "Point",
        "coordinates": [
          47.97532240187251,
          -72.10640146031038
        ]
      }
    },
    {
      "type": "Feature",
      "properties": {
        "norad_id": 33678,
        "name": "FENGYUN 1C DEB",
        "group": "fengyun-1c-debris",
        "lat": 27.889756091828723,
        "lon": -115.82249069118672,
        "alt_km": 669.5189738463887,
        "timestamp": "2025-12-19T08:58:49.624906+00:00",
        "meta_object_name": "FENGYUN 1C DEB",
        "meta_object_id": "1999-025DFP",
        "meta_epoch": "2025-12-18T15:40:27.738912",
        "meta_mean_motion": 14.47381159,
        "meta_eccentricity": 0.02051925,
        "meta_inclination": 99.044,
        "meta_ra_of_asc_node": 58.5712,
        "meta_arg_of_pericenter": 219.0752,
        "meta_mean_anomaly": 139.5466,
        "meta_ephemeris_type": 0,
        "meta_classification_type": "U",
        "meta_norad_cat_id": 33678,
        "meta_element_set_no": 999,
        "meta_rev_at_epoch": 95181,
        "meta_bstar": 0.00057827508,
        "meta_mean_motion_dot": 2.7e-05,
        "meta_mean_motion_ddot": 0,
        "tle_line1": "1 33678U 99025DFP 25352.65309883  .00002700  00000+0  57828-3 0  9992",
        "tle_line2": "2 33678  99.0440  58.5712 0205192 219.0752 139.5466 14.47381159951819"
      },
      "geometry": {
        "type": "Point",
        "coordinates": [
          -115.82249069118672,
          27.889756091828723
        ]
      }
    }
  ]
}